QIANFAN-81              
1 63167U 25046J   25257.24210314  .00000142  00000+0  20098-3 0  9996
2 63167  88.9844 329.1174 0014976  28.5840 331.6129 13.50975642 35406
QIANFAN-82              
1 63168U 25046K   25257.20091778  .00000142  00000+0  20124-3 0  9994
2 63168  88.9844 329.1651 0013460  37.5565 322.6524 13.50972420 35385
QIANFAN-83              
1 63169U 25046L   25257.21546125  .00000163  00000+0  19616-3 0  9994
2 63169  88.9844 329.1156 0014355  27.2629 332.9279 13.61949772 35418
QIANFAN-84              
1 63170U 25046M   25257.22957140  .00000129  00000+0  18068-3 0  9992
2 63170  88.9844 329.2952 0016240  32.1768 328.0371 13.50978128 35312
QIANFAN-85              
1 63171U 25046N   25257.22569386  .00000145  00000+0  20634-3 0  9994
2 63171  88.9844 329.1677 0013755  36.2035 324.0045 13.50973571 35384
QIANFAN-86              
1 63172U 25046P   25257.23391069  .00000149  00000+0  21132-3 0  9995
2 63172  88.9846 329.0270 0011828  41.9465 318.2590 13.50974116 35469
QIANFAN-87              
1 63173U 25046Q   25257.20509723  .00000134  00000+0  18841-3 0  9998
2 63173  88.9842 329.1448 0012342  36.5800 323.6191 13.50970252 35395
QIANFAN-88              
1 63174U 25046R   25257.22153413  .00000141  00000+0  20002-3 0  9992
2 63174  88.9845 329.0955 0013016  43.7347 316.4833 13.50977887 35424
